IRIDIUM 921 [-]         
1 24873U 97034E   24086.61040516  .00030091  00000+0  91396-3 0  9993
2 24873  86.3851 328.8331 0003583 162.3651 197.7724 15.33930642462508
IRIDIUM 26 [-]          
1 24903U 97043A   24086.63523534  .00000972  00000+0  32654-3 0  9992
2 24903  86.3916 298.4229 0002226  92.2760 267.8692 14.36256192392482
IRIDIUM 22 [-]          
1 24907U 97043E   24086.62714871  .00000905  00000+0  31039-3 0  9993
2 24907  86.3927 301.5996 0002035  87.1152 273.0277 14.35150242392566
DUMMY MASS 1 [-]        
1 24925U 97048A   24086.44285000  .00001306  00000+0  14595-3 0  9999
2 24925  86.3387 342.2307 0004732 305.6185  54.4599 14.86112926438612
DUMMY MASS 2 [-]        
1 24926U 97048B   24086.46604769  .00001106  00000+0  12386-3 0  9993
2 24926  86.3389 343.7476 0005808 318.4718  41.6064 14.85870741438404
IRIDIUM 29 [-]          
1 24944U 97051A   24086.58631661  .00000958  00000+0  32591-3 0  9995
2 24944  86.3982 331.5500 0001884  84.6217 275.5194 14.35609995389034
IRIDIUM 33 [-]          
1 24946U 97051C   24086.60620106  .00000671  00000+0  23195-3 0  9994
2 24946  86.3895 330.7995 0009999  96.7656 263.4678 14.34295867388573
IRIDIUM 28 [-]          
1 24948U 97051E   24086.43588809  .00001171  00000+0  39203-3 0  9993
2 24948  86.3982 329.3861 0002511  90.7482 269.4003 14.36560027389543
